OBJECT_NAME,OBJECT_ID,EPOCH,MEAN_MOTION,ECCENTRICITY,INCLINATION,RA_OF_ASC_NODE,ARG_OF_PERICENTER,MEAN_ANOMALY,EPHEMERIS_TYPE,CLASSIFICATION_TYPE,NORAD_CAT_ID,ELEMENT_SET_NO,REV_AT_EPOCH,BSTAR,MEAN_MOTION_DOT,MEAN_MOTION_DDOT
STARLINK-37589,2026-154W,2026-07-20T04:10:53.779584,15.80958869,.00010161,53.1582,267.8215,97.1067,263.0071,0,U,69839,999,360,.91311901E-3,.184143E-2,0
STARLINK-37487,2026-154X,2026-07-20T06:00:04.000320,15.80908937,.00011968,53.1589,266.9599,79.1274,224.3470,0,U,69840,999,345,-.31761032E-3,-.63034E-3,0
STARLINK-37433,2026-154Y,2026-07-20T06:00:04.000320,15.80903116,.00010631,53.1593,266.9611,77.2406,225.5961,0,U,69841,999,358,-.23221735E-3,-.46349E-3,0
STARLINK-37588,2026-154Z,2026-07-20T06:00:04.000320,15.80898639,.00010734,53.1590,266.9253,65.4442,254.5776,0,U,69842,999,348,-.23796199E-3,-.47463E-3,0
STARLINK-37579,2026-154AA,2026-07-20T06:00:04.000320,15.80929349,.00009173,53.1592,266.9284,97.3531,221.0865,0,U,69843,999,348,-.63627835E-3,-.124803E-2,0
STARLINK-37584,2026-154AB,2026-07-20T06:00:04.000320,15.80896854,.00014544,53.1594,266.9208,56.0835,266.1785,0,U,69844,999,348,-.24112118E-3,-.48079E-3,0
STARLINK-37606,2026-154AC,2026-07-20T06:00:04.000320,15.80898920,.00012182,53.1592,266.9090,98.9495,228.4736,0,U,69845,999,348,-.23372632E-3,-.46636E-3,0
STARLINK-37603,2026-154AD,2026-07-20T06:00:04.000320,15.80929180,.00010484,53.1595,266.9020,79.0161,251.7475,0,U,69846,999,348,-.68693164E-3,-.134535E-2,0
STARLINK-37595,2026-154AE,2026-07-20T06:00:04.000320,15.80943209,.00009221,53.1596,266.8905,71.2455,264.7135,0,U,69847,999,348,-.80842371E-3,-.157882E-2,0
QIANFAN-219,2026-155A,2026-07-19T13:42:55.260288,14.22001674,.00294575,89.0059,60.4479,207.2393,152.7255,0,U,69848,999,200,-.87017398E+0,-.1799626E-1,0
QIANFAN-220,2026-155B,2026-07-20T05:40:24.092544,14.17597909,.00298423,89.0062,60.3804,205.2693,154.7038,0,U,69849,999,209,.13649845E-4,.42E-6,0
QIANFAN-221,2026-155C,2026-07-20T06:33:44.148960,14.26648448,.00308429,89.0063,60.3675,206.1917,153.7718,0,U,69850,999,210,.71265245E-4,.187E-5,0
QIANFAN-222,2026-155D,2026-07-17T19:58:00.985440,14.22185075,.00295553,89.0065,60.6495,214.6997,145.2267,0,U,69851,999,175,.15570034E-4,.49E-6,0
QIANFAN-223,2026-155E,2026-07-19T02:17:50.556192,14.18104033,.00345026,89.0058,60.5062,216.3041,143.5808,0,U,69852,999,193,-.10600395E+1,-.2023195E-1,0
QIANFAN-224,2026-155F,2026-07-17T21:29:45.028320,14.18497223,.00311144,89.0052,60.6399,224.5648,135.3039,0,U,69853,999,176,-.93450076E+0,-.1809487E-1,0
QIANFAN-225,2026-155G,2026-07-19T07:14:49.574688,14.18662242,.00342677,89.0056,60.4814,215.2357,144.6567,0,U,69854,999,196,-.10600112E+1,-.2042683E-1,0
QIANFAN-226,2026-155H,2026-07-19T08:52:39.104256,14.17543510,.00336005,89.0058,60.4729,218.1332,141.7479,0,U,69855,999,197,-.95337124E+0,-.1814487E-1,0
QIANFAN-227,2026-155J,2026-07-19T10:25:51.938688,14.18343532,.00342561,89.0058,60.4639,216.4994,143.3861,0,U,69856,999,198,-.91042618E+0,-.174343E-1,0
QIANFAN-228,2026-155K,2026-07-17T23:00:18.463392,14.20295178,.00318777,89.0055,60.6322,218.7208,141.1698,0,U,69857,999,177,-.95328318E+0,-.1902873E-1,0
QIANFAN-229,2026-155L,2026-07-18T20:52:57.173088,14.26690212,.00308184,89.0064,60.5275,210.5909,149.3489,0,U,69858,999,190,.60229541E-4,.161E-5,0
QIANFAN-230,2026-155M,2026-07-17T21:41:32.151840,14.16167691,.00329611,89.0054,60.6411,222.0372,137.8286,0,U,69859,999,176,-.10463152E+1,-.1931944E-1,0
QIANFAN-231,2026-155N,2026-07-18T22:39:37.495872,14.26097133,.00308993,89.0065,60.5202,209.7131,150.2309,0,U,69860,999,191,.71810741E-4,.187E-5,0
QIANFAN-232,2026-155P,2026-07-18T22:32:08.653920,14.22492911,.0029251,89.0055,60.5197,204.9431,155.0349,0,U,69861,999,191,-.9287293E+0,-.1928897E-1,0
QIANFAN-233,2026-155Q,2026-07-19T13:39:21.505824,14.22233601,.00286859,89.0060,60.4472,211.5277,148.4197,0,U,69862,999,200,-.79470459E+0,-.1641998E-1,0
QIANFAN-234,2026-155R,2026-07-19T20:26:20.320512,14.26759635,.00307273,89.0064,60.4155,207.7190,152.2368,0,U,69863,999,204,.69313168E-4,.183E-5,0
QIANFAN-235,2026-155S,2026-07-20T06:32:12.552864,14.26765652,.00307303,89.0063,60.3675,206.3122,153.6513,0,U,69864,999,210,.66491264E-4,.176E-5,0
QIANFAN-236,2026-155T,2026-07-19T01:55:16.036608,14.26770514,.00305619,89.0064,60.5035,210.4183,149.5239,0,U,69865,999,193,.72758697E-4,.191E-5,0
QIANFAN-237,2026-155U,2026-07-20T03:10:01.579008,14.26779110,.00306571,89.0063,60.3835,206.8464,153.1145,0,U,69866,999,207,.71817173E-4,.189E-5,0
QIANFAN-238,2026-155V,2026-07-20T06:31:54.008832,14.26786643,.00306534,89.0063,60.3674,206.3965,153.5669,0,U,69867,999,210,.7394288E-4,.194E-5,0
CZ-8A R/B,2026-155W,2026-07-20T06:17:32.824608,14.48272286,.01065695,88.9655,60.2767,86.2813,275.0571,0,U,69868,999,212,.73521534E-4,.314E-5,0
